OBJECT_NAME,OBJECT_ID,EPOCH,MEAN_MOTION,ECCENTRICITY,INCLINATION,RA_OF_ASC_NODE,ARG_OF_PERICENTER,MEAN_ANOMALY,EPHEMERIS_TYPE,CLASSIFICATION_TYPE,NORAD_CAT_ID,ELEMENT_SET_NO,REV_AT_EPOCH,BSTAR,MEAN_MOTION_DOT,MEAN_MOTION_DDOT
STARLINK-34277,2025-112L,2026-06-16T02:18:56.065536,15.05639248,.00010955,97.3536,217.5455,130.2065,229.9258,0,U,64156,999,5811,-.15267645E-3,-.2259E-4,0
STARLINK-34343,2025-112M,2026-06-16T03:42:59.968800,15.04482590,.00143599,97.6098,218.3772,273.6893,86.2691,0,U,64157,999,5810,.10212093E-2,.14282E-3,0
STARLINK-34166,2025-112N,2026-06-16T02:42:50.447232,15.05660148,.00006794,97.3528,217.5237,124.0352,236.0940,0,U,64158,999,5811,.31880832E-3,.4547E-4,0
STARLINK-34344,2025-112P,2026-06-16T04:06:34.873344,15.05658902,.00014115,97.3523,217.5988,127.3681,232.7676,0,U,64159,999,5812,.18891684E-3,.267E-4,0
STARLINK-34339,2025-112Q,2026-06-16T03:42:39.848832,15.05651255,.00012464,97.3551,217.6232,125.7759,234.3585,0,U,64160,999,5812,.14361641E-3,.2016E-4,0
STARLINK-34341,2025-112R,2026-06-15T20:55:58.332288,15.05651115,.0002024,97.3527,217.3907,109.0230,251.1217,0,U,64161,999,5808,.69121E-3,.993E-4,0
STARLINK-34317,2025-112S,2026-06-16T01:19:07.073472,15.05659127,.00016897,97.3541,217.6015,96.1987,263.9433,0,U,64162,999,5811,.3677419E-3,.5254E-4,0
STARLINK-34340,2025-112T,2026-06-16T02:22:54.376608,15.05662419,.00006375,97.3532,217.5427,103.3640,256.7659,0,U,64163,999,5811,.40241215E-3,.5755E-4,0
STARLINK-34263,2025-112U,2026-06-16T02:10:56.701920,15.05655601,.00018793,97.3536,217.5542,135.1211,225.0169,0,U,64164,999,5811,.29418729E-3,.4191E-4,0
STARLINK-33793,2025-112V,2026-06-16T03:34:41.524608,15.05659827,.00018785,97.3520,217.6295,106.2143,253.9291,0,U,64165,999,5812,.27266891E-3,.388E-4,0
STARLINK-34313,2025-112W,2026-06-16T01:47:01.683456,15.05662211,.00017163,97.3539,217.5791,108.3255,251.8159,0,U,64166,999,5811,.31646222E-3,.4513E-4,0
STARLINK-34309,2025-112X,2026-06-15T20:47:58.159968,15.05658923,.0001934,97.3535,217.3977,96.2868,263.8580,0,U,64167,999,5808,.29382E-3,.4186E-4,0
STARLINK-34303,2025-112Y,2026-06-16T01:23:06.455040,15.05661757,.00016689,97.3531,217.6008,92.7985,267.3434,0,U,64168,999,5811,.35306498E-3,.5042E-4,0
STARLINK-34175,2025-112Z,2026-06-16T02:34:52.057344,15.05660570,.0001666,97.3538,217.5311,123.5822,236.5565,0,U,64169,999,5811,.26659088E-3,.3792E-4,0
STARLINK-34177,2025-113A,2026-06-16T05:51:28.594944,15.31707778,.00010068,53.1602,352.6997,39.7834,320.3241,0,U,64170,999,6016,.50328868E-3,.15288E-3,0
STARLINK-34228,2025-113B,2026-06-16T05:31:19.152192,15.31707047,.00011254,53.1605,352.6075,82.2403,277.8726,0,U,64171,999,6016,.42181815E-3,.1275E-3,0
STARLINK-34233,2025-113C,2026-06-16T05:04:33.797856,15.31713536,.0000488,53.1582,353.2007,80.5656,279.5401,0,U,64172,999,6015,.64574721E-3,.19735E-3,0
STARLINK-34172,2025-113D,2026-06-16T05:24:35.940672,15.31705966,.00011287,53.1596,352.5758,86.5956,273.5175,0,U,64173,999,6012,.53039186E-3,.16132E-3,0
STARLINK-34202,2025-113E,2026-06-16T05:39:57.425184,15.30199240,.00011827,53.1611,353.3507,81.9451,278.1684,0,U,64174,999,6015,.45092877E-3,.13019E-3,0
STARLINK-34231,2025-113F,2026-06-15T19:34:04.817856,15.31704035,.00010641,53.1589,354.9924,88.2855,271.8269,0,U,64175,999,6009,.25747392E-3,.7634E-4,0
STARLINK-34191,2025-113G,2026-06-16T05:39:51.208704,15.34397063,.00013891,53.1609,351.9315,76.7877,283.3281,0,U,64176,999,6017,.53740963E-3,.17822E-3,0
STARLINK-34164,2025-113H,2026-06-15T19:15:01.020960,15.30202370,.00007928,53.1619,355.6215,59.2245,300.8834,0,U,64177,999,6008,.77640539E-3,.22708E-3,0
STARLINK-34227,2025-113J,2026-06-16T05:44:31.295040,15.30200262,.00014148,53.1613,353.3696,74.0426,286.0731,0,U,64178,999,6015,.72329703E-3,.21124E-3,0
STARLINK-34194,2025-113K,2026-06-16T05:00:27.798912,15.34398084,.00010119,53.1587,351.7622,76.6049,283.5067,0,U,64179,999,6017,.65540343E-3,.21831E-3,0
STARLINK-34000,2025-113L,2026-06-15T19:58:54.972480,15.30203713,.00014698,53.1591,355.0922,143.5238,216.5863,0,U,64180,999,6005,.62422353E-3,.18176E-3,0
STARLINK-33917,2025-113M,2026-06-16T06:01:14.092320,15.30202664,.00013103,53.1616,353.4394,78.4647,281.6501,0,U,64181,999,6015,.56226894E-3,.16332E-3,0
STARLINK-34131,2025-113N,2026-06-16T05:41:28.932288,15.30198397,.00011615,53.1615,353.3504,97.0667,263.0466,0,U,64182,999,6011,.49367465E-3,.14289E-3,0
STARLINK-34188,2025-113P,2026-06-15T19:27:19.719360,15.31682665,.000138,53.1594,354.9640,109.3404,250.7747,0,U,64183,999,6009,.21142482E-3,.6198E-4,0
STARLINK-34197,2025-113Q,2026-06-15T19:10:27.436224,15.30200331,.00010598,53.1615,355.6009,66.0837,294.0274,0,U,64184,999,6008,.4666375E-3,.13487E-3,0
STARLINK-34063,2025-113R,2026-06-15T19:13:54.888672,15.31719219,.00010589,53.1604,354.9058,95.2123,264.8999,0,U,64185,999,6009,.40214776E-3,.12142E-3,0
