STARLINK-34277          
1 64156U 25112L   26167.09648224 -.00002259  00000+0 -15268-3 0  9994
2 64156  97.3536 217.5455 0001095 130.2065 229.9258 15.05639248 58113
STARLINK-34343          
1 64157U 25112M   26167.15486075  .00014282  00000+0  10212-2 0  9996
2 64157  97.6098 218.3772 0014359 273.6893  86.2691 15.04482590 58108
STARLINK-34166          
1 64158U 25112N   26167.11308388  .00004547  00000+0  31881-3 0  9992
2 64158  97.3528 217.5237 0000679 124.0352 236.0940 15.05660148 58111
STARLINK-34344          
1 64159U 25112P   26167.17123696  .00002670  00000+0  18892-3 0  9998
2 64159  97.3523 217.5988 0001411 127.3681 232.7676 15.05658902 58121
STARLINK-34339          
1 64160U 25112Q   26167.15462788  .00002016  00000+0  14362-3 0  9998
2 64160  97.3551 217.6232 0001246 125.7759 234.3585 15.05651255 58122
STARLINK-34341          
1 64161U 25112R   26166.87220292  .00009930  00000+0  69121-3 0  9994
2 64161  97.3527 217.3907 0002024 109.0230 251.1217 15.05651115 58085
STARLINK-34317          
1 64162U 25112S   26167.05494298  .00005254  00000+0  36774-3 0  9998
2 64162  97.3541 217.6015 0001689  96.1987 263.9433 15.05659127 58112
STARLINK-34340          
1 64163U 25112T   26167.09924047  .00005755  00000+0  40241-3 0  9993
2 64163  97.3532 217.5427 0000637 103.3640 256.7659 15.05662419 58116
STARLINK-34263          
1 64164U 25112U   26167.09093405  .00004191  00000+0  29419-3 0  9996
2 64164  97.3536 217.5542 0001879 135.1211 225.0169 15.05655601 58115
STARLINK-33793          
1 64165U 25112V   26167.14909172  .00003880  00000+0  27267-3 0  9993
2 64165  97.3520 217.6295 0001878 106.2143 253.9291 15.05659827 58128
STARLINK-34313          
1 64166U 25112W   26167.07432504  .00004513  00000+0  31646-3 0  9996
2 64166  97.3539 217.5791 0001716 108.3255 251.8159 15.05662211 58117
STARLINK-34309          
1 64167U 25112X   26166.86664537  .00004186  00000+0  29382-3 0  9996
2 64167  97.3535 217.3977 0001934  96.2868 263.8580 15.05658923 58087
STARLINK-34303          
1 64168U 25112Y   26167.05771360  .00005042  00000+0  35306-3 0  9997
2 64168  97.3531 217.6008 0001668  92.7985 267.3434 15.05661757 58117
STARLINK-34175          
1 64169U 25112Z   26167.10754696  .00003792  00000+0  26659-3 0  9998
2 64169  97.3538 217.5311 0001666 123.5822 236.5565 15.05660570 58117
STARLINK-34177          
1 64170U 25113A   26167.24408096  .00015288  00000+0  50329-3 0  9990
2 64170  53.1602 352.6997 0001006  39.7834 320.3241 15.31707778 60163
STARLINK-34228          
1 64171U 25113B   26167.23008278  .00012750  00000+0  42182-3 0  9997
2 64171  53.1605 352.6075 0001125  82.2403 277.8726 15.31707047 60164
STARLINK-34233          
1 64172U 25113C   26167.21150229  .00019735  00000+0  64575-3 0  9990
2 64172  53.1582 353.2007 0000488  80.5656 279.5401 15.31713536 60151
STARLINK-34172          
1 64173U 25113D   26167.22541598  .00016132  00000+0  53039-3 0  9996
2 64173  53.1596 352.5758 0001128  86.5956 273.5175 15.31705966 60120
STARLINK-34202          
1 64174U 25113E   26167.23608131  .00013019  00000+0  45093-3 0  9997
2 64174  53.1611 353.3507 0001182  81.9451 278.1684 15.30199240 60159
STARLINK-34231          
1 64175U 25113F   26166.81533354  .00007634  00000+0  25747-3 0  9995
2 64175  53.1589 354.9924 0001064  88.2855 271.8269 15.31704035 60098
STARLINK-34191          
1 64176U 25113G   26167.23600936  .00017822  00000+0  53741-3 0  9999
2 64176  53.1609 351.9315 0001389  76.7877 283.3281 15.34397063 60172
STARLINK-34164          
1 64177U 25113H   26166.80209515  .00022708  00000+0  77641-3 0  9994
2 64177  53.1619 355.6215 0000792  59.2245 300.8834 15.30202370 60087
STARLINK-34227          
1 64178U 25113J   26167.23925110  .00021124  00000+0  72330-3 0  9990
2 64178  53.1613 353.3696 0001414  74.0426 286.0731 15.30200262 60155
STARLINK-34194          
1 64179U 25113K   26167.20865508  .00021831  00000+0  65540-3 0  9992
2 64179  53.1587 351.7622 0001011  76.6049 283.5067 15.34398084 60179
STARLINK-34000          
1 64180U 25113L   26166.83258070  .00018176  00000+0  62422-3 0  9996
2 64180  53.1591 355.0922 0001469 143.5238 216.5863 15.30203713 60054
STARLINK-33917          
1 64181U 25113M   26167.25085755  .00016332  00000+0  56227-3 0  9990
2 64181  53.1616 353.4394 0001310  78.4647 281.6501 15.30202664 60150
STARLINK-34131          
1 64182U 25113N   26167.23714042  .00014289  00000+0  49367-3 0  9993
2 64182  53.1615 353.3504 0001161  97.0667 263.0466 15.30198397 60112
STARLINK-34188          
1 64183U 25113P   26166.81064490  .00006198  00000+0  21142-3 0  9993
2 64183  53.1594 354.9640 0001380 109.3404 250.7747 15.31682665 60095
STARLINK-34197          
1 64184U 25113Q   26166.79892866  .00013487  00000+0  46664-3 0  9992
2 64184  53.1615 355.6009 0001059  66.0837 294.0274 15.30200331 60089
STARLINK-34063          
1 64185U 25113R   26166.80132973  .00012142  00000+0  40215-3 0  9994
2 64185  53.1604 354.9058 0001058  95.2123 264.8999 15.31719219 60096
